HODOYOSHI-4             
1 40011U 14033B   26178.18726031  .00001273  00000+0  14334-3 0  9999
2 40011  97.5452   2.5269 0022098 273.0918  86.7771 14.88147769650298
DEIMOS-2                
1 40013U 14033D   26178.23131534  .00001051  00000+0  10433-3 0  9995
2 40013  97.5828  52.3673 0001199  52.1899 307.9429 14.93751471639227
HODOYOSHI-3             
1 40015U 14033F   26178.02005875  .00001048  00000+0  12672-3 0  9995
2 40015  97.6425 340.6652 0031879 324.3372  35.5713 14.85407242649081
SPOT 7                  
1 40053U 14034A   26178.18095038  .00000489  00000+0  10896-3 0  9999
2 40053  98.0629 240.4150 0001355  95.6307 264.5048 14.60966724638593
SKYSAT-B                
1 40072U 14037D   26178.14438183  .00001256  00000+0  14338-3 0  9999
2 40072  98.3843 137.6771 0004280 238.8939 121.1856 14.88051354647446
WORLDVIEW-3 (WV-3)      
1 40115U 14048A   26178.20698559  .00000827  00000+0  10317-3 0  9997
2 40115  97.8564 252.9015 0000178  23.3651 336.7572 14.85037428643392
GAOFEN-2                
1 40118U 14049A   26178.17633517  .00000184  00000+0  30697-4 0  9990
2 40118  98.0111 242.3739 0006795 190.2060 169.9015 14.80907438640714
YAOGAN-21               
1 40143U 14053A   26178.19241944  .00007691  00000+0  29676-3 0  9998
2 40143  97.1473 217.9994 0009559  65.3925 294.8309 15.26516392656488
YAOGAN-22               
1 40275U 14063A   26177.99627455 -.00000021  00000+0  69021-4 0  9997
2 40275 100.7735 329.4328 0006562 163.7141 196.4182 13.15531220561103
ASNARO                  
1 40298U 14070A   26178.16899763  .00007456  00000+0  35331-3 0  9997
2 40298  97.3453 254.0132 0006402 136.6822 223.4918 15.19575352645527
YAOGAN-24               
1 40310U 14072A   26178.18166626  .00000153  00000+0  29936-4 0  9993
2 40310  98.1495 315.6044 0013289 229.5126 130.4926 14.76095533625190
CBERS 4                 
1 40336U 14079A   26178.21368764 -.00000023  00000+0  66172-5 0  9990
2 40336  98.3533 234.7307 0001536  54.1749 305.9580 14.35511226605393
YAOGAN-26               
1 40362U 14088A   26178.15613192  .00026550  00000+0  51301-3 0  9998
2 40362  97.0638 178.1336 0004826  42.9886 317.1741 15.47747247639242
SMAP                    
1 40376U 15003A   26178.13118985  .00000441  00000+0  94346-4 0  9997
2 40376  98.1276 185.0848 0001436  98.4514 261.6851 14.63374836609070
KOMPSAT-3A              
1 40536U 15014A   26178.22134307  .00028581  00000+0  40510-3 0  9991
2 40536  97.6882 170.3198 0057114 138.7216 221.8377 15.54475098623374
SENTINEL-2A             
1 40697U 15028A   26178.21469782 -.00000132  00000+0 -33647-4 0  9999
2 40697  98.5686 252.9240 0001174  94.6978 265.4339 14.30817290575161
GAOFEN-8                
1 40701U 15030A   26178.18414175  .00004908  00000+0  10149-3 0  9994
2 40701  97.6904  12.1557 0009506 151.9648 208.2114 15.46292715612991
CARBONITE 1 (CBNT-1)    
1 40718U 15032D   26178.16438211  .00001456  00000+0  18251-3 0  9996
2 40718  97.6509 355.8131 0012959 261.8077  98.1668 14.83614095590824
YAOGAN-27               
1 40878U 15040A   26178.21534951 -.00000072  00000+0 -78236-4 0  9991
2 40878 100.1153 164.1628 0007984 186.1511 173.9506 13.16071054518989
GAOFEN-9 01             
1 40894U 15047A   26178.18418990  .00000987  00000+0  12716-3 0  9999
2 40894  97.6271 213.4246 0028853 106.5339 253.9048 14.82902155581679
YAOGAN-28               
1 41026U 15064A   26178.21472561  .00007196  00000+0  26933-3 0  9999
2 41026  97.3081 316.2729 0011472 149.3946 210.7964 15.27542895592210
YAOGAN-29               
1 41038U 15069A   26178.23053238  .00000399  00000+0  55588-4 0  9992
2 41038  98.0027 206.8790 0002051  38.5633 321.5726 14.83092143572119
KENT RIDGE 1            
1 41167U 15077B   26178.18258964  .00004077  00000+0  13588-3 0  9991
2 41167  14.9780 191.6486 0008177  19.7065 340.3573 15.23187566582628
GAOFEN-4                
1 41194U 15083A   26176.90227766 -.00000324  00000+0  00000+0 0  9995
2 41194   0.3805  83.9226 0004051 113.8387 146.7998  1.00271078 38616
JASON-3                 
1 41240U 16002A   26178.17749971 -.00000073  00000+0 -42499-4 0  9992
2 41240  66.0415 104.8326 0008396 272.2823  87.7234 12.87623084488531
SENTINEL-3A             
1 41335U 16011A   26178.17501081  .00000098  00000+0  58521-4 0  9993
2 41335  98.6246 245.4151 0001436  96.7964 263.3380 14.26735229539485
ZIYUAN 3-02 (ZY 3-02)   
1 41556U 16033A   26178.18788418  .00005433  00000+0  24570-3 0  9998
2 41556  97.3839 253.7697 0012505 251.9538 108.0336 15.21271258559506
CARTOSAT-2C             
1 41599U 16040A   26178.20373919  .00005154  00000+0  24732-3 0  9992
2 41599  97.4486 238.0438 0010527 101.0660 259.1759 15.19268568555234
SKYSAT-C1               
1 41601U 16040C   26178.05111674  .00009636  00000+0  27289-3 0  9996
2 41601  96.9564 209.2368 0002527  37.9380 322.2043 15.36462513559381
LAPAN-A3                
1 41603U 16040E   26178.24246950  .00004007  00000+0  12724-3 0  9990
2 41603  97.1487 174.0578 0009612 350.6029   9.5033 15.33168450556357
GAOFEN-3                
1 41727U 16049A   26178.21316456  .00000175  00000+0  66247-4 0  9994
2 41727  98.4011 185.8477 0001606  97.7697 262.3675 14.42217099520090
