OBJECT_NAME,OBJECT_ID,EPOCH,MEAN_MOTION,ECCENTRICITY,INCLINATION,RA_OF_ASC_NODE,ARG_OF_PERICENTER,MEAN_ANOMALY,EPHEMERIS_TYPE,CLASSIFICATION_TYPE,NORAD_CAT_ID,ELEMENT_SET_NO,REV_AT_EPOCH,BSTAR,MEAN_MOTION_DOT,MEAN_MOTION_DDOT
HODOYOSHI-4,2014-033B,2026-06-27T04:29:39.290784,14.88147769,.0022098,97.5452,2.5269,273.0918,86.7771,0,U,40011,999,65029,.14334E-3,.1273E-4,0
DEIMOS-2,2014-033D,2026-06-27T05:33:05.645376,14.93751471,.0001199,97.5828,52.3673,52.1899,307.9429,0,U,40013,999,63922,.10433E-3,.1051E-4,0
HODOYOSHI-3,2014-033F,2026-06-27T00:28:53.076000,14.85407242,.0031879,97.6425,340.6652,324.3372,35.5713,0,U,40015,999,64908,.12672E-3,.1048E-4,0
SPOT 7,2014-034A,2026-06-27T04:20:34.112832,14.60966724,.0001355,98.0629,240.4150,95.6307,264.5048,0,U,40053,999,63859,.10896E-3,.489E-5,0
SKYSAT-B,2014-037D,2026-06-27T03:27:54.590112,14.88051354,.000428,98.3843,137.6771,238.8939,121.1856,0,U,40072,999,64744,.14338E-3,.1256E-4,0
WORLDVIEW-3 (WV-3),2014-048A,2026-06-27T04:58:03.554976,14.85037428,.0000178,97.8564,252.9015,23.3651,336.7572,0,U,40115,999,64339,.10317E-3,.827E-5,0
GAOFEN-2,2014-049A,2026-06-27T04:13:55.358688,14.80907438,.0006795,98.0111,242.3739,190.2060,169.9015,0,U,40118,999,64071,.30697E-4,.184E-5,0
YAOGAN-21,2014-053A,2026-06-27T04:37:05.039616,15.26516392,.0009559,97.1473,217.9994,65.3925,294.8309,0,U,40143,999,65648,.29676E-3,.7691E-4,0
YAOGAN-22,2014-063A,2026-06-26T23:54:38.121120,13.15531220,.0006562,100.7735,329.4328,163.7141,196.4182,0,U,40275,999,56110,.69021E-4,-.21E-6,0
ASNARO,2014-070A,2026-06-27T04:03:21.395232,15.19575352,.0006402,97.3453,254.0132,136.6822,223.4918,0,U,40298,999,64552,.35331E-3,.7456E-4,0
YAOGAN-24,2014-072A,2026-06-27T04:21:35.964864,14.76095533,.0013289,98.1495,315.6044,229.5126,130.4926,0,U,40310,999,62519,.29936E-4,.153E-5,0
CBERS 4,2014-079A,2026-06-27T05:07:42.612096,14.35511226,.0001536,98.3533,234.7307,54.1749,305.9580,0,U,40336,999,60539,.66172E-5,-.23E-6,0
YAOGAN-26,2014-088A,2026-06-27T03:44:49.797888,15.47747247,.0004826,97.0638,178.1336,42.9886,317.1741,0,U,40362,999,63924,.51301E-3,.2655E-3,0
SMAP,2015-003A,2026-06-27T03:08:54.803040,14.63374836,.0001436,98.1276,185.0848,98.4514,261.6851,0,U,40376,999,60907,.94346E-4,.441E-5,0
KOMPSAT-3A,2015-014A,2026-06-27T05:18:44.041248,15.54475098,.0057114,97.6882,170.3198,138.7216,221.8377,0,U,40536,999,62337,.4051E-3,.28581E-3,0
SENTINEL-2A,2015-028A,2026-06-27T05:09:09.891648,14.30817290,.0001174,98.5686,252.9240,94.6978,265.4339,0,U,40697,999,57516,-.33647E-4,-.132E-5,0
GAOFEN-8,2015-030A,2026-06-27T04:25:09.847200,15.46292715,.0009506,97.6904,12.1557,151.9648,208.2114,0,U,40701,999,61299,.10149E-3,.4908E-4,0
CARBONITE 1 (CBNT-1),2015-032D,2026-06-27T03:56:42.614304,14.83614095,.0012959,97.6509,355.8131,261.8077,98.1668,0,U,40718,999,59082,.18251E-3,.1456E-4,0
YAOGAN-27,2015-040A,2026-06-27T05:10:06.197664,13.16071054,.0007984,100.1153,164.1628,186.1511,173.9506,0,U,40878,999,51898,-.78236E-4,-.72E-6,0
GAOFEN-9 01,2015-047A,2026-06-27T04:25:14.007360,14.82902155,.0028853,97.6271,213.4246,106.5339,253.9048,0,U,40894,999,58167,.12716E-3,.987E-5,0
YAOGAN-28,2015-064A,2026-06-27T05:09:12.292704,15.27542895,.0011472,97.3081,316.2729,149.3946,210.7964,0,U,41026,999,59221,.26933E-3,.7196E-4,0
YAOGAN-29,2015-069A,2026-06-27T05:31:57.997632,14.83092143,.0002051,98.0027,206.8790,38.5633,321.5726,0,U,41038,999,57211,.55588E-4,.399E-5,0
KENT RIDGE 1,2015-077B,2026-06-27T04:22:55.744896,15.23187566,.0008177,14.9780,191.6486,19.7065,340.3573,0,U,41167,999,58262,.13588E-3,.4077E-4,0
GAOFEN-4,2015-083A,2026-06-25T21:39:16.789824,1.00271078,.00040511,0.3805,83.9226,113.8387,146.7998,0,U,41194,999,3861,0,-.324E-5,0
JASON-3,2016-002A,2026-06-27T04:15:35.974944,12.87623084,.0008396,66.0415,104.8326,272.2823,87.7234,0,U,41240,999,48853,-.42499E-4,-.73E-6,0
SENTINEL-3A,2016-011A,2026-06-27T04:12:00.933984,14.26735229,.0001436,98.6246,245.4151,96.7964,263.3380,0,U,41335,999,53948,.58521E-4,.98E-6,0
ZIYUAN 3-02 (ZY 3-02),2016-033A,2026-06-27T04:30:33.193152,15.21271258,.0012505,97.3839,253.7697,251.9538,108.0336,0,U,41556,999,55950,.2457E-3,.5433E-4,0
CARTOSAT-2C,2016-040A,2026-06-27T04:53:23.066016,15.19268568,.0010527,97.4486,238.0438,101.0660,259.1759,0,U,41599,999,55523,.24732E-3,.5154E-4,0
SKYSAT-C1,2016-040C,2026-06-27T01:13:36.486336,15.36462513,.0002527,96.9564,209.2368,37.9380,322.2043,0,U,41601,999,55938,.27289E-3,.9636E-4,0
LAPAN-A3,2016-040E,2026-06-27T05:49:09.364800,15.33168450,.0009612,97.1487,174.0578,350.6029,9.5033,0,U,41603,999,55635,.12724E-3,.4007E-4,0
GAOFEN-3,2016-049A,2026-06-27T05:06:57.417984,14.42217099,.0001606,98.4011,185.8477,97.7697,262.3675,0,U,41727,999,52009,.66247E-4,.175E-5,0
